NORAD_CAT_ID,OBJECT_NAME,OBJECT_TYPE,EPOCH,MEAN_MOTION,ECCENTRICITY,INCLINATION,RA_OF_ASC_NODE,ARG_OF_PERICENTER,MEAN_ANOMALY,BSTAR,MEAN_MOTION_DOT,MEAN_MOTION_DDOT,TLE_LINE0,TLE_LINE1,TLE_LINE2,SEMIMAJOR_AXIS,PERIOD,APOGEE,PERIGEE,DECAYED
51748.0,STARLINK-3501,PAYLOAD,2023-01-28 21:21:13,15.08840993,0.0001139,53.2163,7.9327,96.3753,263.7369,0.00015245,2.139e-05,0.0,0 STARLINK-3501,1 51748U 22016AL  23028.88974395  .00002139  00000-0  15245-3 0  9999,2 51748  53.2163   7.9327 0001139  96.3753 263.7369 15.08840993 53306,6917.877,95.437,540.53,538.954,0.0
51748.0,STARLINK-3501,PAYLOAD,2023-01-29 21:12:01,15.08838472,0.0001121,53.2156,3.4723,86.583,273.529,0.00010904,1.448e-05,0.0,0 STARLINK-3501,1 51748U 22016AL  23029.88334498  .00001448  00000-0  10904-3 0  9993,2 51748  53.2156   3.4723 0001121  86.5830 273.5290 15.08838472 52385,6917.885,95.438,540.526,538.975,0.0
51748.0,STARLINK-3501,PAYLOAD,2023-01-30 05:08:56,15.08845754,0.0001099,53.2158,1.9856,87.9323,272.1795,0.0001958,2.83e-05,0.0,0 STARLINK-3501,1 51748U 22016AL  23030.21454155  .00002830  00000-0  19580-3 0  9990,2 51748  53.2158   1.9856 0001099  87.9323 272.1795 15.08845754 53504,6917.863,95.437,540.488,538.968,0.0
51748.0,STARLINK-3501,PAYLOAD,2023-01-30 21:02:48,15.0883779,0.0001105,53.2157,359.0119,94.7353,265.3765,3.3697e-05,2.48e-06,0.0,0 STARLINK-3501,1 51748U 22016AL  23030.87694449  .00000248  00000-0  33697-4 0  9991,2 51748  53.2157 359.0119 0001105  94.7353 265.3765 15.08837790 52533,6917.887,95.438,540.517,538.988,0.0
51748.0,STARLINK-3501,PAYLOAD,2023-01-30 22:38:11,15.08839786,0.0001119,53.2158,358.7145,97.8265,262.2854,7.2353e-05,8.64e-06,0.0,0 STARLINK-3501,1 51748U 22016AL  23030.94318383  .00000864  00000-0  72353-4 0  9995,2 51748  53.2158 358.7145 0001119  97.8265 262.2854 15.08839786 53612,6917.881,95.438,540.52,538.972,0.0
51748.0,STARLINK-3501,PAYLOAD,2023-01-31 06:35:06,15.08851403,0.0001173,53.2155,357.2274,101.6333,258.4791,0.00035854,5.425e-05,0.0,0 STARLINK-3501,1 51748U 22016AL  23031.27438033  .00005425  00000-0  35854-3 0  9999,2 51748  53.2155 357.2274 0001173 101.6333 258.4791 15.08851403 53668,6917.846,95.437,540.522,538.899,0.0
51748.0,STARLINK-3501,PAYLOAD,2023-01-31 17:42:48,15.08844534,0.0001307,53.2152,355.1451,113.8156,246.2973,0.00019805,2.866e-05,0.0,0 STARLINK-3501,1 51748U 22016AL  23031.73806137  .00002866  00000-0  19805-3 0  9998,2 51748  53.2152 355.1451 0001307 113.8156 246.2973 15.08844534 53738,6917.867,95.437,540.636,538.827,0.0
51748.0,STARLINK-3501,PAYLOAD,2023-01-31 20:53:34,15.08844318,0.000125,53.2151,354.5506,106.5158,253.5972,0.00019562,2.827e-05,0.0,0 STARLINK-3501,1 51748U 22016AL  23031.87054209  .00002827  00000-0  19562-3 0  9995,2 51748  53.2151 354.5506 0001250 106.5158 253.5972 15.08844318 52682,6917.867,95.437,540.597,538.867,0.0
51748.0,STARLINK-3501,PAYLOAD,2023-02-01 06:25:53,15.08855006,0.0001235,53.215,352.7666,103.7032,256.4097,0.00039471,6.002e-05,0.0,0 STARLINK-3501,1 51748U 22016AL  23032.26797703  .00006002  00000-0  39471-3 0  9992,2 51748  53.2150 352.7666 0001235 103.7032 256.4097 15.08855006 52744,6917.835,95.437,540.554,538.845,0.0
51748.0,STARLINK-3501,PAYLOAD,2023-02-01 17:33:35,15.08835751,0.0001333,53.215,350.6845,110.6784,249.4352,-9.1485e-06,-4.33e-06,0.0,0 STARLINK-3501,1 51748U 22016AL  23032.73166376 -.00000433  00000-0 -91485-5 0  9999,2 51748  53.2150 350.6845 0001333 110.6784 249.4352 15.08835751 53887,6917.893,95.438,540.681,538.836,0.0
51748.0,STARLINK-3501,PAYLOAD,2023-02-02 06:16:40,15.08844756,0.0001231,53.215,348.3055,97.0154,263.0978,0.00029504,4.411e-05,0.0,0 STARLINK-3501,1 51748U 22016AL  23033.26158445  .00004411  00000-0  29504-3 0  9995,2 51748  53.2150 348.3055 0001231  97.0154 263.0978 15.08844756 52891,6917.866,95.437,540.582,538.879,0.0
51748.0,STARLINK-3501,PAYLOAD,2023-02-02 22:10:32,15.08853343,0.0001244,53.2149,345.3319,89.2394,270.874,0.00086005,0.00013431,0.0,0 STARLINK-3501,1 51748U 22016AL  23033.92398433  .00013431  00000-0  86005-3 0  9992,2 51748  53.2149 345.3319 0001244  89.2394 270.8740 15.08853343 54068,6917.84,95.437,540.565,538.844,0.0
51748.0,STARLINK-3501,PAYLOAD,2023-02-03 06:07:27,15.08873721,0.0001229,53.2151,343.8449,91.2752,268.8381,0.0012693,0.00019989,0.0,0 STARLINK-3501,1 51748U 22016AL  23034.25517764  .00019989  00000-0  12693-2 0  9994,2 51748  53.2151 343.8449 0001229  91.2752 268.8381 15.08873721 54118,6917.777,95.435,540.493,538.792,0.0
51748.0,STARLINK-3501,PAYLOAD,2023-02-04 05:58:14,15.08854956,0.0001231,53.2159,339.3842,97.2021,262.9112,0.00075031,0.00011678,0.0,0 STARLINK-3501,1 51748U 22016AL  23035.24877908  .00011678  00000-0  75031-3 0  9996,2 51748  53.2159 339.3842 0001231  97.2021 262.9112 15.08854956 54263,6917.835,95.437,540.551,538.848,0.0
51748.0,STARLINK-3501,PAYLOAD,2023-02-04 20:16:43,15.08837063,0.0001636,53.2163,336.7083,88.0933,272.0246,0.00076933,0.00011976,0.0,0 STARLINK-3501,1 51748U 22016AL  23035.84494707  .00011976  00000-0  76933-3 0  9997,2 51748  53.2163 336.7083 0001636  88.0933 272.0246 15.08837063 54355,6917.889,95.438,540.886,538.623,0.0
51748.0,STARLINK-3501,PAYLOAD,2023-02-05 05:49:02,15.08841875,0.0001321,53.2165,334.9239,84.9828,275.1315,0.00067183,0.00010421,0.0,0 STARLINK-3501,1 51748U 22016AL  23036.24238809  .00010421  00000-0  67183-3 0  9992,2 51748  53.2165 334.9239 0001321  84.9828 275.1315 15.08841875 53344,6917.875,95.437,540.654,538.826,0.0
51748.0,STARLINK-3501,PAYLOAD,2023-02-06 05:39:49,15.08846893,0.0001349,53.2171,330.463,88.5892,271.5254,0.00039905,6.07e-05,0.0,0 STARLINK-3501,1 51748U 22016AL  23037.23598901  .00006070  00000-0  39905-3 0  9990,2 51748  53.2171 330.4630 0001349  88.5892 271.5254 15.08846893 54560,6917.859,95.437,540.658,538.791,0.0
51748.0,STARLINK-3501,PAYLOAD,2023-02-06 18:22:54,15.08845176,0.0001433,53.2176,328.0836,86.2086,273.907,0.00030162,4.516e-05,0.0,0 STARLINK-3501,1 51748U 22016AL  23037.76590988  .00004516  00000-0  30162-3 0  9994,2 51748  53.2176 328.0836 0001433  86.2086 273.9070 15.08845176 54644,6917.865,95.437,540.721,538.738,0.0
51748.0,STARLINK-3501,PAYLOAD,2023-02-07 05:30:35,15.08887647,0.0001302,53.2172,326.0026,72.546,287.5675,0.0011105,0.00017453,0.0,0 STARLINK-3501,1 51748U 22016AL  23038.22957181  .00017453  00000-0  11105-2 0  9997,2 51748  53.2172 326.0026 0001302  72.5460 287.5675 15.08887647 54717,6917.735,95.435,540.5,538.699,0.0
51748.0,STARLINK-3501,PAYLOAD,2023-02-07 22:59:50,15.08838494,9.01e-05,53.2166,322.7314,87.9788,272.1307,-0.00021907,-3.772e-05,0.0,0 STARLINK-3501,1 51748U 22016AL  23038.95822168 -.00003772  00000-0 -21907-3 0  9996,2 51748  53.2166 322.7314 0000901  87.9788 272.1307 15.08838494 54820,6917.885,95.438,540.373,539.127,0.0
51748.0,STARLINK-3501,PAYLOAD,2023-02-08 06:56:45,15.08853221,0.0001101,53.2155,321.2435,102.8011,257.3104,0.00022647,3.32e-05,0.0,0 STARLINK-3501,1 51748U 22016AL  23039.28941732  .00003320  00000-0  22647-3 0  9991,2 51748  53.2155 321.2435 0001101 102.8011 257.3104 15.08853221 54875,6917.84,95.437,540.467,538.943,0.0
51748.0,STARLINK-3501,PAYLOAD,2023-02-09 03:36:47,15.08851035,0.0001691,53.2163,317.3774,78.2157,281.9025,0.0012525,0.00019708,0.0,0 STARLINK-3501,1 51748U 22016AL  23040.15055024  .00019708  00000-0  12525-2 0  9999,2 51748  53.2163 317.3774 0001691  78.2157 281.9025 15.08851035 55009,6917.847,95.437,540.881,538.542,0.0
51748.0,STARLINK-3501,PAYLOAD,2023-02-10 00:16:50,15.08811809,0.0001359,53.2137,313.5144,108.7099,251.404,0.00098609,0.00015428,0.0,0 STARLINK-3501,1 51748U 22016AL  23041.01169395  .00015428  00000-0  98609-3 0  9995,2 51748  53.2137 313.5144 0001359 108.7099 251.4040 15.08811809 55132,6917.967,95.439,540.772,538.891,0.0
51748.0,STARLINK-3501,PAYLOAD,2023-02-10 03:27:36,15.08821121,0.0001589,53.2137,312.9188,106.3485,253.7682,0.0018098,0.00028618,0.0,0 STARLINK-3501,1 51748U 22016AL  23041.14417681  .00028618  00000-0  18098-2 0  9991,2 51748  53.2137 312.9188 0001589 106.3485 253.7682 15.08821121 54089,6917.938,95.439,540.902,538.704,0.0
51748.0,STARLINK-3501,PAYLOAD,2023-02-11 00:07:35,15.08911312,0.0001444,53.214,309.0531,105.7907,254.3245,0.0029256,0.00046673,0.0,0 STARLINK-3501,1 51748U 22016AL  23042.00527696  .00046673  00000-0  29256-2 0  9994,2 51748  53.2140 309.0531 0001444 105.7907 254.3245 15.08911312 55281,6917.662,95.433,540.526,538.529,0.0
51748.0,STARLINK-3501,PAYLOAD,2023-02-11 17:36:49,15.08888232,0.0001687,53.2138,305.7812,109.4352,250.6822,0.0022309,0.00035443,0.0,0 STARLINK-3501,1 51748U 22016AL  23042.73390916  .00035443  00000-0  22309-2 0  9992,2 51748  53.2138 305.7812 0001687 109.4352 250.6822 15.08888232 54325,6917.733,95.435,540.765,538.431,0.0
51748.0,STARLINK-3501,PAYLOAD,2023-02-11 23:58:22,15.08855593,7e-05,53.2139,304.5917,67.3346,292.772,0.0023644,0.00037558,0.0,0 STARLINK-3501,1 51748U 22016AL  23042.99886924  .00037558  00000-0  23644-2 0  9991,2 51748  53.2139 304.5917 0000700  67.3346 292.7720 15.08855593 55430,6917.833,95.437,540.182,539.213,0.0
51748.0,STARLINK-3501,PAYLOAD,2023-02-12 03:09:08,15.08864841,0.0001046,53.2141,303.9972,71.9005,288.21,0.0022585,0.00035864,0.0,0 STARLINK-3501,1 51748U 22016AL  23043.13134806  .00035864  00000-0  22585-2 0  9994,2 51748  53.2141 303.9972 0001046  71.9005 288.2100 15.08864841 54385,6917.804,95.436,540.393,538.946,0.0
51748.0,STARLINK-3501,PAYLOAD,2023-02-12 17:27:37,15.08840726,7.32e-05,53.2147,301.3211,86.1087,273.9989,0.00087425,0.00013653,0.0,0 STARLINK-3501,1 51748U 22016AL  23043.72751412  .00013653  00000-0  87425-3 0  9994,2 51748  53.2147 301.3211 0000732  86.1087 273.9989 15.08840726 55549,6917.878,95.438,540.25,539.237,0.0
51748.0,STARLINK-3501,PAYLOAD,2023-02-13 09:21:29,15.08830402,0.0001645,53.2139,298.3453,97.2393,262.8786,0.00095085,0.00014873,0.0,0 STARLINK-3501,1 51748U 22016AL  23044.38992120  .00014873  00000-0  95085-3 0  9996,2 51748  53.2139 298.3453 0001645  97.2393 262.8786 15.08830402 55643,6917.91,95.438,540.913,538.637,0.0
